NORAD_CAT_ID,OBJECT_NAME,OBJECT_TYPE,EPOCH,MEAN_MOTION,ECCENTRICITY,INCLINATION,RA_OF_ASC_NODE,ARG_OF_PERICENTER,MEAN_ANOMALY,BSTAR,MEAN_MOTION_DOT,MEAN_MOTION_DDOT,TLE_LINE0,TLE_LINE1,TLE_LINE2,SEMIMAJOR_AXIS,PERIOD,APOGEE,PERIGEE,DECAYED
52695.0,STARLINK-4041,PAYLOAD,2024-02-27 20:39:38,15.08847911,0.0001584,53.2174,234.6298,106.4688,253.6478,-1.0147e-06,-3.04e-06,0.0,0 STARLINK-4041,1 52695U 22053AR  24058.86085838 -.00000304  00000-0 -10147-5 0  9991,2 52695  53.2174 234.6298 0001584 106.4688 253.6478 15.08847911 99250,6917.856,95.437,540.817,538.625,0.0
52695.0,STARLINK-4041,PAYLOAD,2024-02-28 10:58:06,15.08834795,0.0001329,53.2173,231.9498,94.041,266.0734,0.00012517,1.704e-05,0.0,0 STARLINK-4041,1 52695U 22053AR  24059.45702523  .00001704  00000-0  12517-3 0  9998,2 52695  53.2173 231.9498 0001329  94.0410 266.0734 15.08834795 99342,6917.896,95.438,540.681,538.842,0.0
52695.0,STARLINK-4041,PAYLOAD,2024-02-28 18:55:02,15.08836171,0.0001317,53.2174,230.463,96.5419,263.5723,0.00016735,2.376e-05,0.0,0 STARLINK-4041,1 52695U 22053AR  24059.78822459  .00002376  00000-0  16735-3 0  9997,2 52695  53.2174 230.4630 0001317  96.5419 263.5723 15.08836171 99393,6917.892,95.438,540.668,538.846,0.0
52695.0,STARLINK-4041,PAYLOAD,2024-02-29 10:48:54,15.08841594,0.00012,53.2158,227.4884,88.1062,272.0068,5.2161e-05,5.42e-06,0.0,0 STARLINK-4041,1 52695U 22053AR  24060.45062551  .00000542  00000-0  52161-4 0  9999,2 52695  53.2158 227.4884 0001200  88.1062 272.0068 15.08841594 99497,6917.876,95.437,540.571,538.91,0.0
52695.0,STARLINK-4041,PAYLOAD,2024-02-29 17:10:26,15.08843632,0.0001134,53.2153,226.299,87.05,273.0622,6.1246e-05,6.87e-06,0.0,0 STARLINK-4041,1 52695U 22053AR  24060.71558306  .00000687  00000-0  61246-4 0  9990,2 52695  53.2153 226.2990 0001134  87.0500 273.0622 15.08843632 99535,6917.869,95.437,540.519,538.95,0.0
52695.0,STARLINK-4041,PAYLOAD,2024-03-01 10:39:41,15.08835393,0.0001233,53.2158,223.0286,85.0367,275.0766,7.0695e-05,8.37e-06,0.0,0 STARLINK-4041,1 52695U 22053AR  24061.44422801  .00000837  00000-0  70695-4 0  9996,2 52695  53.2158 223.0286 0001233  85.0367 275.0766 15.08835393 99235,6917.894,95.438,540.612,538.906,0.0
52695.0,STARLINK-4041,PAYLOAD,2024-03-01 17:01:13,15.08840937,0.0001217,53.2157,221.8397,84.1806,275.9324,2.8072e-05,1.59e-06,0.0,0 STARLINK-4041,1 52695U 22053AR  24061.70918514  .00000159  00000-0  28072-4 0  9995,2 52695  53.2157 221.8397 0001217  84.1806 275.9324 15.08840937 99681,6917.878,95.437,540.584,538.901,0.0
52695.0,STARLINK-4041,PAYLOAD,2024-03-02 13:41:14,15.08841973,0.0001219,53.2156,217.9742,79.7927,280.3203,6.8353e-05,8e-06,0.0,0 STARLINK-4041,1 52695U 22053AR  24062.57030342  .00000800  00000-0  68353-4 0  9994,2 52695  53.2156 217.9742 0001219  79.7927 280.3203 15.08841973 99818,6917.874,95.437,540.583,538.896,0.0
52695.0,STARLINK-4041,PAYLOAD,2024-03-02 16:52:00,15.08844183,0.000129,53.2165,217.3789,87.7185,272.3955,7.7225e-05,9.41e-06,0.0,0 STARLINK-4041,1 52695U 22053AR  24062.70278136  .00000941  00000-0  77225-4 0  9998,2 52695  53.2165 217.3789 0001290  87.7185 272.3955 15.08844183 99425,6917.868,95.437,540.625,538.84,0.0
52695.0,STARLINK-4041,PAYLOAD,2024-03-03 10:21:15,15.08838004,0.0001347,53.2168,214.1072,90.3859,269.7288,5.0493e-05,5.16e-06,0.0,0 STARLINK-4041,1 52695U 22053AR  24063.43142641  .00000516  00000-0  50493-4 0  9996,2 52695  53.2168 214.1072 0001347  90.3859 269.7288 15.08838004 99535,6917.886,95.438,540.683,538.82,0.0
52695.0,STARLINK-4041,PAYLOAD,2024-03-03 15:07:24,15.08837761,0.000132,53.2167,213.2152,89.141,270.9733,4.7157e-05,4.63e-06,0.0,0 STARLINK-4041,1 52695U 22053AR  24063.63014659  .00000463  00000-0  47157-4 0  9999,2 52695  53.2167 213.2152 0001320  89.1410 270.9733 15.08837761 99979,6917.887,95.438,540.665,538.839,0.0
52695.0,STARLINK-4041,PAYLOAD,2024-03-03 16:42:47,15.08839408,0.0001371,53.2172,212.9181,91.0734,269.0415,3.3912e-05,2.52e-06,0.0,0 STARLINK-4041,1 52695U 22053AR  24063.69638597  .00000252  00000-0  33912-4 0  9998,2 52695  53.2172 212.9181 0001371  91.0734 269.0415 15.08839408 99987,6917.882,95.438,540.696,538.799,0.0
52695.0,STARLINK-4041,PAYLOAD,2024-03-04 14:58:11,15.08837882,0.0001335,53.2174,208.7571,97.7425,262.3719,1.6287e-05,-2.9e-07,0.0,0 STARLINK-4041,1 52695U 22053AR  24064.62374747 -.00000029  00000-0  16287-4 0  9995,2 52695  53.2174 208.7571 0001335  97.7425 262.3719 15.08837882100121,6917.887,95.438,540.675,538.828,0.0
52695.0,STARLINK-4041,PAYLOAD,2024-03-04 16:33:34,15.08837651,0.0001345,53.2174,208.4603,98.2002,261.9142,1.2611e-05,-8.7e-07,0.0,0 STARLINK-4041,1 52695U 22053AR  24064.68998778 -.00000087  00000-0  12611-4 0  9998,2 52695  53.2174 208.4603 0001345  98.2002 261.9142 15.08837651 99724,6917.888,95.438,540.683,538.822,0.0
52695.0,STARLINK-4041,PAYLOAD,2024-03-05 14:48:59,15.08834046,0.000126,53.2171,204.2974,97.3304,262.7831,2.6868e-05,1.4e-06,0.0,0 STARLINK-4041,1 52695U 22053AR  24065.61735268  .00000140  00000-0  26868-4 0  9993,2 52695  53.2171 204.2974 0001260  97.3304 262.7831 15.08834046100279,6917.899,95.438,540.635,538.892,0.0
52695.0,STARLINK-4041,PAYLOAD,2024-03-05 17:59:45,15.08835597,0.0001336,53.218,203.7028,103.1754,256.9388,5.5948e-05,6.03e-06,0.0,0 STARLINK-4041,1 52695U 22053AR  24065.74983100  .00000603  00000-0  55948-4 0  9992,2 52695  53.2180 203.7028 0001336 103.1754 256.9388 15.08835597 99880,6917.894,95.438,540.683,538.835,0.0
52695.0,STARLINK-4041,PAYLOAD,2024-03-06 13:04:23,15.08831605,0.0001228,53.2182,200.1321,83.9271,276.1861,1.2714e-06,-2.68e-06,0.0,0 STARLINK-4041,1 52695U 22053AR  24066.54471842 -.00000268  00000-0  12714-5 0  9999,2 52695  53.2182 200.1321 0001228  83.9271 276.1861 15.08831605100416,6917.906,95.438,540.621,538.922,0.0
52695.0,STARLINK-4041,PAYLOAD,2024-03-07 01:47:28,15.08833251,0.0001171,53.2173,197.7528,79.3755,280.7369,4.4719e-05,4.24e-06,0.0,0 STARLINK-4041,1 52695U 22053AR  24067.07463795  .00000424  00000-0  44719-4 0  9998,2 52695  53.2173 197.7528 0001171  79.3755 280.7369 15.08833251100085,6917.901,95.438,540.576,538.956,0.0
52695.0,STARLINK-4041,PAYLOAD,2024-03-07 14:30:34,15.08836263,0.0001315,53.2172,195.3736,81.9018,278.2123,-1.9534e-05,-5.99e-06,0.0,0 STARLINK-4041,1 52695U 22053AR  24067.60456209 -.00000599  00000-0 -19534-4 0  9991,2 52695  53.2172 195.3736 0001315  81.9018 278.2123 15.08836263100570,6917.892,95.438,540.667,538.847,0.0
52695.0,STARLINK-4041,PAYLOAD,2024-03-08 14:21:20,15.08848084,0.0001134,53.2173,190.9124,82.648,277.4641,0.00011979,1.62e-05,0.0,0 STARLINK-4041,1 52695U 22053AR  24068.59814818  .00001620  00000-0  11979-3 0  9992,2 52695  53.2173 190.9124 0001134  82.6480 277.4641 15.08848084100720,6917.856,95.437,540.505,538.936,0.0
52695.0,STARLINK-4041,PAYLOAD,2024-03-09 07:50:35,15.08814161,0.0001078,53.2182,187.6407,110.3166,249.7942,0.00041034,6.244e-05,0.0,0 STARLINK-4041,1 52695U 22053AR  24069.32679671  .00006244  00000-0  41034-3 0  9992,2 52695  53.2182 187.6407 0001078 110.3166 249.7942 15.08814161100426,6917.959,95.439,540.57,539.079,0.0
52695.0,STARLINK-4041,PAYLOAD,2024-03-09 14:12:07,15.08837083,0.0001393,53.2172,186.451,99.2673,260.8477,0.00016446,2.33e-05,0.0,0 STARLINK-4041,1 52695U 22053AR  24069.59175092  .00002330  00000-0  16446-3 0  9990,2 52695  53.2172 186.4510 0001393  99.2673 260.8477 15.08837083100879,6917.889,95.438,540.718,538.791,0.0
52695.0,STARLINK-4041,PAYLOAD,2024-03-10 12:27:32,15.08783706,6.42e-05,53.2176,182.2882,62.9574,297.1484,0.00058947,9.092e-05,0.0,0 STARLINK-4041,1 52695U 22053AR  24070.51912381  .00009092  00000-0  58947-3 0  9998,2 52695  53.2176 182.2882 0000642  62.9574 297.1484 15.08783706100606,6918.052,95.441,540.362,539.473,0.0
52695.0,STARLINK-4041,PAYLOAD,2024-03-10 14:02:54,15.08834395,0.0001804,53.2163,181.9905,94.1776,265.9423,1.747e-05,-1e-07,0.0,0 STARLINK-4041,1 52695U 22053AR  24070.58535848 -.00000010  00000-0  17470-4 0  9993,2 52695  53.2163 181.9905 0001804  94.1776 265.9423 15.08834395101020,6917.898,95.438,541.011,538.515,0.0
52695.0,STARLINK-4041,PAYLOAD,2024-03-10 17:13:41,15.08834077,0.0001824,53.2165,181.3966,93.1972,266.9229,1.4594e-05,-5.6e-07,0.0,0 STARLINK-4041,1 52695U 22053AR  24070.71783941 -.00000056  00000-0  14594-4 0  9991,2 52695  53.2165 181.3966 0001824  93.1972 266.9229 15.08834077100630,6917.898,95.438,541.025,538.502,0.0
52695.0,STARLINK-4041,PAYLOAD,2024-03-11 13:53:42,15.08834639,0.0001401,53.2164,177.5307,94.7303,265.3849,0.00010116,1.322e-05,0.0,0 STARLINK-4041,1 52695U 22053AR  24071.57896014  .00001322  00000-0  10116-3 0  9993,2 52695  53.2164 177.5307 0001401  94.7303 265.3849 15.08834639101176,6917.897,95.438,540.731,538.793,0.0
52695.0,STARLINK-4041,PAYLOAD,2024-03-12 13:44:28,15.08845308,0.0001692,53.2166,173.0732,91.4918,268.6268,0.00017853,2.555e-05,0.0,0 STARLINK-4041,1 52695U 22053AR  24072.57255410  .00002555  00000-0  17853-3 0  9997,2 52695  53.2166 173.0732 0001692  91.4918 268.6268 15.08845308100916,6917.864,95.437,540.9,538.559,0.0
52695.0,STARLINK-4041,PAYLOAD,2024-03-13 13:35:16,15.0884229,0.0001419,53.2174,168.6133,94.912,265.2035,5.9092e-05,6.53e-06,0.0,0 STARLINK-4041,1 52695U 22053AR  24073.56615922  .00000653  00000-0  59092-4 0  9994,2 52695  53.2174 168.6133 0001419  94.9120 265.2035 15.08842290101069,6917.873,95.437,540.72,538.757,0.0
52695.0,STARLINK-4041,PAYLOAD,2024-03-14 05:29:07,15.08845353,0.0001357,53.2172,165.6397,89.2623,270.8525,1.8239e-05,2e-08,0.0,0 STARLINK-4041,1 52695U 22053AR  24074.22855714  .00000002  00000-0  18239-4 0  9999,2 52695  53.2172 165.6397 0001357  89.2623 270.8525 15.08845353101577,6917.864,95.437,540.668,538.79,0.0
52695.0,STARLINK-4041,PAYLOAD,2024-03-14 11:50:39,15.08847621,0.0001313,53.2171,164.4503,81.1679,278.9462,2.7289e-05,1.47e-06,0.0,0 STARLINK-4041,1 52695U 22053AR  24074.49351454  .00000147  00000-0  27289-4 0  9995,2 52695  53.2171 164.4503 0001313  81.1679 278.9462 15.08847621101610,6917.857,95.437,540.63,538.814,0.0
